start=new Date('2023-06-19T00:00:00.000Z').valueOf();
sats=[{"PERIOD":"95.437","TLE_LINE1":"1 50187U 21125AH  23169.85504835  .00001037  00000-0  83210-4 0  9990","BSTAR":"0.00008321000000","DECAY_DATE":null,"CLASSIFICATION_TYPE":"U","REV_AT_EPOCH":"8653","NORAD_CAT_ID":"50187","GP_ID":"234245111","EPOCH":"2023-06-18T20:31:16.177440","SITE":"AFWTR","REF_FRAME":"TEME","CENTER_NAME":"EARTH","RA_OF_ASC_NODE":"25.1080","OBJECT_TYPE":"PAYLOAD","MEAN_ANOMALY":"269.3918","COUNTRY_CODE":"US","INCLINATION":"53.2186","TLE_LINE2":"2 50187  53.2186  25.1080 0001063  90.7196 269.3918 15.08844796 86538","ARG_OF_PERICENTER":"90.7196","MEAN_MOTION":"15.08844796","MEAN_MOTION_DOT":"0.00001037","EPHEMERIS_TYPE":"0","OBJECT_ID":"2021-125AH","RCS_SIZE":"LARGE","FILE":"3936745","ECCENTRICITY":"0.00010630","PERIAPSIS":"538.995","LAUNCH_DATE":"2021-12-18","SEMIMAJOR_AXIS":"6917.866","MEAN_ELEMENT_THEORY":"SGP4","APOAPSIS":"540.466","TIME_SYSTEM":"UTC","MEAN_MOTION_DDOT":"0.0000000000000","ELEMENT_SET_NO":"999","OBJECT_NAME":"STARLINK-3272"},{"SITE":"AFWTR","GP_ID":"234245854","EPOCH":"2023-06-18T20:36:43.380288","NORAD_CAT_ID":"50188","DECAY_DATE":null,"CLASSIFICATION_TYPE":"U","REV_AT_EPOCH":"8672","PERIOD":"94.693","BSTAR":"-0.00030859000000","TLE_LINE1":"1 50188U 21125AJ  23169.85883542 -.00007186  00000-0 -30859-3 0  9999","EPHEMERIS_TYPE":"0","OBJECT_ID":"2021-125AJ","FILE":"3936745","RCS_SIZE":"LARGE","MEAN_MOTION":"15.20703643","MEAN_MOTION_DOT":"-0.00007186","INCLINATION":"53.2250","ARG_OF_PERICENTER":"314.8901","TLE_LINE2":"2 50188  53.2250  16.0568 0000118 314.8901  45.2087 15.20703643 86723","CENTER_NAME":"EARTH","REF_FRAME":"TEME","COUNTRY_CODE":"US","MEAN_ANOMALY":"45.2087","OBJECT_TYPE":"PAYLOAD","RA_OF_ASC_NODE":"16.0568","SEMIMAJOR_AXIS":"6881.854","MEAN_ELEMENT_THEORY":"SGP4","PERIAPSIS":"503.638","LAUNCH_DATE":"2021-12-18","ECCENTRICITY":"0.00001180","MEAN_MOTION_DDOT":"0.0000000000000","ELEMENT_SET_NO":"999","OBJECT_NAME":"STARLINK-3275","TIME_SYSTEM":"UTC","APOAPSIS":"503.800"},{"SEMIMAJOR_AXIS":"6917.862","MEAN_ELEMENT_THEORY":"SGP4","ECCENTRICITY":"0.00010370","PERIAPSIS":"539.009","LAUNCH_DATE":"2021-12-18","MEAN_MOTION_DDOT":"0.0000000000000","ELEMENT_SET_NO":"999","OBJECT_NAME":"STARLINK-3276","APOAPSIS":"540.444","TIME_SYSTEM":"UTC","NORAD_CAT_ID":"50189","GP_ID":"234244112","EPOCH":"2023-06-18T17:31:09.283584","SITE":"AFWTR","PERIOD":"95.437","TLE_LINE1":"1 50189U 21125AK  23169.72996856 -.00000474  00000-0 -11673-4 0  9996","BSTAR":"-0.00001167300000","DECAY_DATE":null,"CLASSIFICATION_TYPE":"U","REV_AT_EPOCH":"8643","MEAN_MOTION":"15.08846159","MEAN_MOTION_DOT":"-0.00000474","EPHEMERIS_TYPE":"0","OBJECT_ID":"2021-125AK","RCS_SIZE":"LARGE","FILE":"3936745","REF_FRAME":"TEME","CENTER_NAME":"EARTH","OBJECT_TYPE":"PAYLOAD","MEAN_ANOMALY":"267.0037","RA_OF_ASC_NODE":"35.6773","COUNTRY_CODE":"US","INCLINATION":"53.2185","TLE_LINE2":"2 50189  53.2185  35.6773 0001037  93.1074 267.0037 15.08846159 86438","ARG_OF_PERICENTER":"93.1074"},{"INCLINATION":"53.2181","TLE_LINE2":"2 50190  53.2181  29.3163 0001449  87.6527 272.4631 15.08827163 85924","ARG_OF_PERICENTER":"87.6527","REF_FRAME":"TEME","CENTER_NAME":"EARTH","RA_OF_ASC_NODE":"29.3163","OBJECT_TYPE":"PAYLOAD","MEAN_ANOMALY":"272.4631","COUNTRY_CODE":"US","EPHEMERIS_TYPE":"0","OBJECT_ID":"2021-125AL","RCS_SIZE":"LARGE","FILE":"3936139","MEAN_MOTION":"15.08827163","MEAN_MOTION_DOT":"-0.00001184","CLASSIFICATION_TYPE":"U","DECAY_DATE":null,"REV_AT_EPOCH":"8592","PERIOD":"95.438","TLE_LINE1":"1 50190U 21125AL  23168.91666271 -.00001184  00000-0 -56333-4 0  9994","BSTAR":"-0.00005633300000","SITE":"AFWTR","NORAD_CAT_ID":"50190","EPOCH":"2023-06-17T21:59:59.658144","GP_ID":"234181745","APOAPSIS":"540.787","TIME_SYSTEM":"UTC","MEAN_MOTION_DDOT":"0.0000000000000","ELEMENT_SET_NO":"999","OBJECT_NAME":"STARLINK-3268","ECCENTRICITY":"0.00014490","PERIAPSIS":"538.782","LAUNCH_DATE":"2021-12-18","SEMIMAJOR_AXIS":"6917.920","MEAN_ELEMENT_THEORY":"SGP4"},{"NORAD_CAT_ID":"50191","EPOCH":"2023-06-18T18:53:15.642240","GP_ID":"234245611","SITE":"AFWTR","PERIOD":"95.438","TLE_LINE1":"1 50191U 21125AM  23169.78698660  .00016150  00000-0  10305-2 0  9992","BSTAR":"0.00103050000000","DECAY_DATE":null,"CLASSIFICATION_TYPE":"U","REV_AT_EPOCH":"8625","MEAN_MOTION":"15.08838393","MEAN_MOTION_DOT":"0.00016150","EPHEMERIS_TYPE":"0","OBJECT_ID":"2021-125AM","RCS_SIZE":"LARGE","FILE":"3936745","REF_FRAME":"TEME","CENTER_NAME":"EARTH","RA_OF_ASC_NODE":"45.4107","OBJECT_TYPE":"PAYLOAD","MEAN_ANOMALY":"290.0375","COUNTRY_CODE":"US","INCLINATION":"53.2165","ARG_OF_PERICENTER":"70.0748","TLE_LINE2":"2 50191  53.2165  45.4107 0001213  70.0748 290.0375 15.08838393 86259","SEMIMAJOR_AXIS":"6917.885","MEAN_ELEMENT_THEORY":"SGP4","ECCENTRICITY":"0.00012130","LAUNCH_DATE":"2021-12-18","PERIAPSIS":"538.911","ELEMENT_SET_NO":"999","MEAN_MOTION_DDOT":"0.0000000000000","OBJECT_NAME":"STARLINK-3273","APOAPSIS":"540.589","TIME_SYSTEM":"UTC"},{"SEMIMAJOR_AXIS":"6917.908","MEAN_ELEMENT_THEORY":"SGP4","ECCENTRICITY":"0.00009450","PERIAPSIS":"539.119","LAUNCH_DATE":"2021-12-18","ELEMENT_SET_NO":"999","MEAN_MOTION_DDOT":"0.0000000000000","OBJECT_NAME":"STARLINK-3259","APOAPSIS":"540.426","TIME_SYSTEM":"UTC","NORAD_CAT_ID":"50192","GP_ID":"234245355","EPOCH":"2023-06-18T15:23:56.331744","SITE":"AFWTR","PERIOD":"95.438","TLE_LINE1":"1 50192U 21125AN  23169.64162421 -.00001691  00000-0 -88185-4 0  9998","BSTAR":"-0.00008818500000","DECAY_DATE":null,"CLASSIFICATION_TYPE":"U","REV_AT_EPOCH":"8651","MEAN_MOTION":"15.08831114","MEAN_MOTION_DOT":"-0.00001691","OBJECT_ID":"2021-125AN","EPHEMERIS_TYPE":"0","RCS_SIZE":"LARGE","FILE":"3936745","REF_FRAME":"TEME","CENTER_NAME":"EARTH","MEAN_ANOMALY":"284.5494","OBJECT_TYPE":"PAYLOAD","RA_OF_ASC_NODE":"26.0606","COUNTRY_CODE":"US","INCLINATION":"53.2181","TLE_LINE2":"2 50192  53.2181  26.0606 0000945  75.5603 284.5494 15.08831114 86511","ARG_OF_PERICENTER":"75.5603"},{"MEAN_MOTION":"15.08821740","MEAN_MOTION_DOT":"-0.00002767","EPHEMERIS_TYPE":"0","OBJECT_ID":"2021-125AP","FILE":"3936420","RCS_SIZE":"LARGE","CENTER_NAME":"EARTH","REF_FRAME":"TEME","COUNTRY_CODE":"US","RA_OF_ASC_NODE":"28.9898","OBJECT_TYPE":"PAYLOAD","MEAN_ANOMALY":"279.5992","INCLINATION":"53.2186","TLE_LINE2":"2 50193  53.2186  28.9898 0001329  80.5150 279.5992 15.08821740 86466","ARG_OF_PERICENTER":"80.5150","EPOCH":"2023-06-17T23:45:59.330592","GP_ID":"234210146","NORAD_CAT_ID":"50193","SITE":"AFWTR","PERIOD":"95.439","BSTAR":"-0.00015589000000","TLE_LINE1":"1 50193U 21125AP  23168.99027003 -.00002767  00000-0 -15589-3 0  9994","CLASSIFICATION_TYPE":"U","DECAY_DATE":null,"REV_AT_EPOCH":"8646","MEAN_MOTION_DDOT":"0.0000000000000","ELEMENT_SET_NO":"999","OBJECT_NAME":"STARLINK-3261","TIME_SYSTEM":"UTC","APOAPSIS":"540.721","SEMIMAJOR_AXIS":"6917.936","MEAN_ELEMENT_THEORY":"SGP4","PERIAPSIS":"538.882","LAUNCH_DATE":"2021-12-18","ECCENTRICITY":"0.00013290"},{"INCLINATION":"53.2188","TLE_LINE2":"2 50194  53.2188  27.5740 0000602  83.3783 276.7278 15.08828921 86516","ARG_OF_PERICENTER":"83.3783","CENTER_NAME":"EARTH","REF_FRAME":"TEME","COUNTRY_CODE":"US","RA_OF_ASC_NODE":"27.5740","OBJECT_TYPE":"PAYLOAD","MEAN_ANOMALY":"276.7278","OBJECT_ID":"2021-125AQ","EPHEMERIS_TYPE":"0","FILE":"3936420","RCS_SIZE":"LARGE","MEAN_MOTION":"15.08828921","MEAN_MOTION_DOT":"-0.00001064","DECAY_DATE":null,"CLASSIFICATION_TYPE":"U","REV_AT_EPOCH":"8651","PERIOD":"95.438","BSTAR":"-0.00004882600000","TLE_LINE1":"1 50194U 21125AQ  23169.30770151 -.00001064  00000-0 -48826-4 0  9990","SITE":"AFWTR","GP_ID":"234210398","EPOCH":"2023-06-18T07:23:05.410464","NORAD_CAT_ID":"50194","TIME_SYSTEM":"UTC","APOAPSIS":"540.196","ELEMENT_SET_NO":"999","MEAN_MOTION_DDOT":"0.0000000000000","OBJECT_NAME":"STARLINK-3269","PERIAPSIS":"539.363","LAUNCH_DATE":"2021-12-18","ECCENTRICITY":"0.00006020","SEMIMAJOR_AXIS":"6917.914","MEAN_ELEMENT_THEORY":"SGP4"},{"TLE_LINE2":"2 50195  53.2183  25.7357 0001351  91.4002 268.7145 15.08830925 86524","ARG_OF_PERICENTER":"91.4002","INCLINATION":"53.2183","OBJECT_TYPE":"PAYLOAD","MEAN_ANOMALY":"268.7145","RA_OF_ASC_NODE":"25.7357","COUNTRY_CODE":"US","REF_FRAME":"TEME","CENTER_NAME":"EARTH","RCS_SIZE":"LARGE","FILE":"3936745","EPHEMERIS_TYPE":"0","OBJECT_ID":"2021-125AR","MEAN_MOTION_DOT":"-0.00000931","MEAN_MOTION":"15.08830925","REV_AT_EPOCH":"8652","DECAY_DATE":null,"CLASSIFICATION_TYPE":"U","TLE_LINE1":"1 50195U 21125AR  23169.71522522 -.00000931  00000-0 -40428-4 0  9995","BSTAR":"-0.00004042800000","PERIOD":"95.438","SITE":"AFWTR","NORAD_CAT_ID":"50195","GP_ID":"234245112","EPOCH":"2023-06-18T17:09:55.459008","APOAPSIS":"540.708","TIME_SYSTEM":"UTC","OBJECT_NAME":"STARLINK-3266","ELEMENT_SET_NO":"999","MEAN_MOTION_DDOT":"0.0000000000000","ECCENTRICITY":"0.00013510","LAUNCH_DATE":"2021-12-18","PERIAPSIS":"538.839","MEAN_ELEMENT_THEORY":"SGP4","SEMIMAJOR_AXIS":"6917.908"},{"OBJECT_NAME":"STARLINK-3263","ELEMENT_SET_NO":"999","MEAN_MOTION_DDOT":"0.0000000000000","TIME_SYSTEM":"UTC","APOAPSIS":"540.159","MEAN_ELEMENT_THEORY":"SGP4","SEMIMAJOR_AXIS":"6917.966","LAUNCH_DATE":"2021-12-18","PERIAPSIS":"539.503","ECCENTRICITY":"0.00004740","MEAN_MOTION_DOT":"-0.00003159","MEAN_MOTION":"15.08811909","FILE":"3936139","RCS_SIZE":"LARGE","EPHEMERIS_TYPE":"0","OBJECT_ID":"2021-125AS","COUNTRY_CODE":"US","MEAN_ANOMALY":"292.8701","OBJECT_TYPE":"PAYLOAD","RA_OF_ASC_NODE":"29.4173","CENTER_NAME":"EARTH","REF_FRAME":"TEME","TLE_LINE2":"2 50196  53.2178  29.4173 0000474  67.2341 292.8701 15.08811909 85928","ARG_OF_PERICENTER":"67.2341","INCLINATION":"53.2178","EPOCH":"2023-06-17T21:45:30.465504","GP_ID":"234182140","NORAD_CAT_ID":"50196","SITE":"AFWTR","BSTAR":"-0.00018067000000","TLE_LINE1":"1 50196U 21125AS  23168.90660261 -.00003159  00000-0 -18067-3 0  9997","PERIOD":"95.439","REV_AT_EPOCH":"8592","DECAY_DATE":null,"CLASSIFICATION_TYPE":"U"}];
